[{"OBJECT_NAME":"HXMT (HUIYAN)","OBJECT_ID":"2017-034A","EPOCH":"2026-03-05T21:27:24.186816","MEAN_MOTION":15.17400681,"ECCENTRICITY":0.0032555,"INCLINATION":43.0151,"RA_OF_ASC_NODE":37.7735,"ARG_OF_PERICENTER":212.7899,"MEAN_ANOMALY":147.0929,"EPHEMERIS_TYPE":0,"CLASSIFICATION_TYPE":"U","NORAD_CAT_ID":42758,"ELEMENT_SET_NO":999,"REV_AT_EPOCH":48196,"BSTAR":0.00036568,"MEAN_MOTION_DOT":7.309e-5,"MEAN_MOTION_DDOT":0},{"OBJECT_NAME":"SAOCOM 1A","OBJECT_ID":"2018-076A","EPOCH":"2026-03-05T20:16:38.358624","MEAN_MOTION":14.82164717,"ECCENTRICITY":0.0001293,"INCLINATION":97.8884,"RA_OF_ASC_NODE":253.0718,"ARG_OF_PERICENTER":81.6747,"MEAN_ANOMALY":278.4613,"EPHEMERIS_TYPE":0,"CLASSIFICATION_TYPE":"U","NORAD_CAT_ID":43641,"ELEMENT_SET_NO":999,"REV_AT_EPOCH":40079,"BSTAR":7.2382e-5,"MEAN_MOTION_DOT":5.24e-6,"MEAN_MOTION_DDOT":0},{"OBJECT_NAME":"H-2A R/B","OBJECT_ID":"2018-084L","EPOCH":"2026-03-05T13:51:59.103360","MEAN_MOTION":15.41138735,"ECCENTRICITY":0.0025756,"INCLINATION":98.8727,"RA_OF_ASC_NODE":281.0878,"ARG_OF_PERICENTER":39.2012,"MEAN_ANOMALY":321.1089,"EPHEMERIS_TYPE":0,"CLASSIFICATION_TYPE":"U","NORAD_CAT_ID":43682,"ELEMENT_SET_NO":999,"REV_AT_EPOCH":40514,"BSTAR":0.00058318,"MEAN_MOTION_DOT":0.00024381,"MEAN_MOTION_DDOT":0},{"OBJECT_NAME":"SAOCOM 1B","OBJECT_ID":"2020-059A","EPOCH":"2026-03-05T19:24:22.753152","MEAN_MOTION":14.82169536,"ECCENTRICITY":0.0001464,"INCLINATION":97.8882,"RA_OF_ASC_NODE":252.134,"ARG_OF_PERICENTER":82.8296,"MEAN_ANOMALY":277.3083,"EPHEMERIS_TYPE":0,"CLASSIFICATION_TYPE":"U","NORAD_CAT_ID":46265,"ELEMENT_SET_NO":999,"REV_AT_EPOCH":29817,"BSTAR":0.00014535,"MEAN_MOTION_DOT":1.105e-5,"MEAN_MOTION_DDOT":0},{"OBJECT_NAME":"CSS (TIANHE)","OBJECT_ID":"2021-035A","EPOCH":"2026-03-05T19:28:58.851264","MEAN_MOTION":15.60440439,"ECCENTRICITY":0.0006853,"INCLINATION":41.4658,"RA_OF_ASC_NODE":231.7522,"ARG_OF_PERICENTER":249.1722,"MEAN_ANOMALY":110.8383,"EPHEMERIS_TYPE":0,"CLASSIFICATION_TYPE":"U","NORAD_CAT_ID":48274,"ELEMENT_SET_NO":999,"REV_AT_EPOCH":27700,"BSTAR":0.00021787,"MEAN_MOTION_DOT":0.0001815,"MEAN_MOTION_DDOT":0},{"OBJECT_NAME":"COSMOS 2550","OBJECT_ID":"2021-056A","EPOCH":"2026-03-05T20:46:36.856704","MEAN_MOTION":15.33837189,"ECCENTRICITY":0.0008465,"INCLINATION":67.1448,"RA_OF_ASC_NODE":52.4987,"ARG_OF_PERICENTER":269.5568,"MEAN_ANOMALY":90.4616,"EPHEMERIS_TYPE":0,"CLASSIFICATION_TYPE":"U","NORAD_CAT_ID":48865,"ELEMENT_SET_NO":999,"REV_AT_EPOCH":26287,"BSTAR":-1.2093e-7,"MEAN_MOTION_DOT":-1.96e-6,"MEAN_MOTION_DDOT":0},{"OBJECT_NAME":"CZ-2C R/B","OBJECT_ID":"2022-058K","EPOCH":"2026-03-05T18:47:33.098208","MEAN_MOTION":15.5390157,"ECCENTRICITY":0.0042185,"INCLINATION":50.1901,"RA_OF_ASC_NODE":338.381,"ARG_OF_PERICENTER":184.2205,"MEAN_ANOMALY":175.8415,"EPHEMERIS_TYPE":0,"CLASSIFICATION_TYPE":"U","NORAD_CAT_ID":52794,"ELEMENT_SET_NO":999,"REV_AT_EPOCH":20952,"BSTAR":0.00055687,"MEAN_MOTION_DOT":0.00037731,"MEAN_MOTION_DDOT":0},{"OBJECT_NAME":"CZ-2C R/B","OBJECT_ID":"2022-132E","EPOCH":"2026-03-05T12:38:47.951232","MEAN_MOTION":15.61437567,"ECCENTRICITY":0.0020758,"INCLINATION":97.2958,"RA_OF_ASC_NODE":67.719,"ARG_OF_PERICENTER":104.7871,"MEAN_ANOMALY":255.5688,"EPHEMERIS_TYPE":0,"CLASSIFICATION_TYPE":"U","NORAD_CAT_ID":54039,"ELEMENT_SET_NO":999,"REV_AT_EPOCH":18972,"BSTAR":0.00055359,"MEAN_MOTION_DOT":0.0004782,"MEAN_MOTION_DDOT":0},{"OBJECT_NAME":"GSLV R/B","OBJECT_ID":"2022-138AN","EPOCH":"2026-03-05T17:01:35.776704","MEAN_MOTION":14.96742639,"ECCENTRICITY":0.0022469,"INCLINATION":87.3887,"RA_OF_ASC_NODE":167.6944,"ARG_OF_PERICENTER":160.4976,"MEAN_ANOMALY":199.7121,"EPHEMERIS_TYPE":0,"CLASSIFICATION_TYPE":"U","NORAD_CAT_ID":54149,"ELEMENT_SET_NO":999,"REV_AT_EPOCH":18333,"BSTAR":0.00040528,"MEAN_MOTION_DOT":4.682e-5,"MEAN_MOTION_DDOT":0},{"OBJECT_NAME":"XRISM","OBJECT_ID":"2023-137A","EPOCH":"2026-03-05T19:26:58.261056","MEAN_MOTION":15.11447555,"ECCENTRICITY":0.0008081,"INCLINATION":31.0028,"RA_OF_ASC_NODE":308.7544,"ARG_OF_PERICENTER":358.9936,"MEAN_ANOMALY":1.0685,"EPHEMERIS_TYPE":0,"CLASSIFICATION_TYPE":"U","NORAD_CAT_ID":57800,"ELEMENT_SET_NO":999,"REV_AT_EPOCH":13720,"BSTAR":0.00040521,"MEAN_MOTION_DOT":7.125e-5,"MEAN_MOTION_DDOT":0},{"OBJECT_NAME":"ACS3","OBJECT_ID":"2024-077B","EPOCH":"2026-03-05T19:48:44.589312","MEAN_MOTION":13.89413,"ECCENTRICITY":0.0056747,"INCLINATION":97.2101,"RA_OF_ASC_NODE":6.8063,"ARG_OF_PERICENTER":86.882,"MEAN_ANOMALY":273.8835,"EPHEMERIS_TYPE":0,"CLASSIFICATION_TYPE":"U","NORAD_CAT_ID":59588,"ELEMENT_SET_NO":999,"REV_AT_EPOCH":9366,"BSTAR":0.022955,"MEAN_MOTION_DOT":0.00028446,"MEAN_MOTION_DDOT":0},{"OBJECT_NAME":"SZ-21 MODULE","OBJECT_ID":"2025-246C","EPOCH":"2026-03-05T19:22:19.378272","MEAN_MOTION":15.68194204,"ECCENTRICITY":0.0001428,"INCLINATION":41.4734,"RA_OF_ASC_NODE":227.2544,"ARG_OF_PERICENTER":292.143,"MEAN_ANOMALY":67.926,"EPHEMERIS_TYPE":0,"CLASSIFICATION_TYPE":"U","NORAD_CAT_ID":66515,"ELEMENT_SET_NO":999,"REV_AT_EPOCH":1746,"BSTAR":0.00036032,"MEAN_MOTION_DOT":0.0004131,"MEAN_MOTION_DDOT":0}]
